*******************************************************************************
JPL/HORIZONS               3754 Kathleen (1931 FM)         2023-Sep-04 11:25:21
Rec #:    3754 (+COV) Soln.date: 2023-Aug-23_13:17:58   # obs: 5638 (1909-2023)
 
IAU76/J2000 helio. ecliptic osc. elements (au, days, deg., period=Julian yrs):
 
  EPOCH=  2457783.5 ! 2017-Jan-30.00 (TDB)         Residual RMS= .24515
   EC= .1083294430810064   QR= 2.815464844165909   TP= 2457303.5103451475
   OM= 110.4990502827099   W=  55.55988756877048   IN= 8.454275126166758
   A= 3.157516890424462    MA= 84.31744295877526   ADIST= 3.499568936683016
   PER= 5.61083            N= .175665126           ANGMOM= .030387217
   DAN= 2.94032            DDN= 3.32411            L= 165.7663865
   B= 6.9642533            MOID= 1.83441997        TP= 2015-Oct-08.0103451475
 
Asteroid physical parameters (km, seconds, rotational period in hours):
   GM= n.a.                RAD= 26.8495            ROTPER= 11.18
   H= 10.58                G= .150                 B-V= n.a.
                           ALBEDO= .061            STYP= n.a.

ASTEROID comments: 
1: soln ref.= JPL#62, OCC=0
2: source=ORB
*******************************************************************************


*******************************************************************************
Ephemeris / API_USER Mon Sep  4 11:25:21 2023 Pasadena, USA      / Horizons
*******************************************************************************
Target body name: 3754 Kathleen (1931 FM)         {source: JPL#62}
Center body name: Solar System Barycenter (0)     {source: DE441}
Center-site name: BODY CENTER
*******************************************************************************
Start time      : A.D. 2023-Aug-12 00:00:00.0000 TDB
Stop  time      : A.D. 2023-Aug-13 00:00:00.0000 TDB
Step-size       : 2880 minutes
*******************************************************************************
Center geodetic : 0.0, 0.0, 0.0                   {E-lon(deg),Lat(deg),Alt(km)}
Center cylindric: 0.0, 0.0, 0.0                   {E-lon(deg),Dxy(km),Dz(km)}
Center radii    : (undefined)
Small perturbers: Yes                             {source: SB441-N16}
Output units    : KM-S
Calendar mode   : Mixed Julian/Gregorian
Output type     : GEOMETRIC cartesian states
Output format   : 2 (position and velocity)
Reference frame : Ecliptic of J2000.0
*******************************************************************************
Initial IAU76/J2000 heliocentric ecliptic osculating elements (au, days, deg.):
  EPOCH=  2457783.5 ! 2017-Jan-30.00 (TDB)         Residual RMS= .24515        
   EC= .1083294430810064   QR= 2.815464844165909   TP= 2457303.5103451475      
   OM= 110.4990502827099   W=  55.55988756877048   IN= 8.454275126166758       
  Equivalent ICRF heliocentric cartesian coordinates (au, au/d):
   X=-3.812548615195496E-01  Y=-2.957752719020455E+00  Z=-1.046910267214018E+00
  VX= 9.325392144640812E-03 VY=-1.618045041631929E-03 VZ=-1.987517761149537E-03
Asteroid physical parameters (km, seconds, rotational period in hours):        
   GM= n.a.                RAD= 26.8495            ROTPER= 11.18               
   H= 10.58                G= .150                 B-V= n.a.                   
                           ALBEDO= .061            STYP= n.a.                  
*******************************************************************************
JDTDB
   X     Y     Z
   VX    VY    VZ
*******************************************************************************
$$SOE
2460168.500000000 = A.D. 2023-Aug-12 00:00:00.0000 TDB 
 X = 3.640107109182308E+08 Y =-3.613550518156111E+08 Z =-3.206366445503277E+07
 VX= 1.120812640245373E+01 VY= 1.022878895988181E+01 VZ=-2.092362344809601E+00
$$EOE
*******************************************************************************
 
TIME

  Barycentric Dynamical Time ("TDB" or T_eph) output was requested. This
continuous coordinate time is equivalent to the relativistic proper time
of a clock at rest in a reference frame co-moving with the solar system
barycenter but outside the system's gravity well. It is the independent
variable in the solar system relativistic equations of motion.

  TDB runs at a uniform rate of one SI second per second and is independent
of irregularities in Earth's rotation.
 
CALENDAR SYSTEM

  Mixed calendar mode was active such that calendar dates after AD 1582-Oct-15
(if any) are in the modern Gregorian system. Dates prior to 1582-Oct-5 (if any)
are in the Julian calendar system, which is automatically extended for dates
prior to its adoption on 45-Jan-1 BC.  The Julian calendar is useful for
matching historical dates. The Gregorian calendar more accurately corresponds
to the Earth's orbital motion and seasons. A "Gregorian-only" calendar mode is
available if such physical events are the primary interest.

REFERENCE FRAME AND COORDINATES

  Ecliptic at the standard reference epoch

    Reference epoch: J2000.0
    X-Y plane: adopted Earth orbital plane at the reference epoch
               Note: IAU76 obliquity of 84381.448 arcseconds wrt ICRF X-Y plane
    X-axis   : ICRF
    Z-axis   : perpendicular to the X-Y plane in the directional (+ or -) sense
               of Earth's north pole at the reference epoch.

  Symbol meaning:

    JDTDB    Julian Day Number, Barycentric Dynamical Time
      X      X-component of position vector (km)
      Y      Y-component of position vector (km)
      Z      Z-component of position vector (km)
      VX     X-component of velocity vector (km/sec)                           
      VY     Y-component of velocity vector (km/sec)                           
      VZ     Z-component of velocity vector (km/sec)                           

ABERRATIONS AND CORRECTIONS

 Geometric state vectors have NO corrections or aberrations applied.

Computations by ...

    Solar System Dynamics Group, Horizons On-Line Ephemeris System
    4800 Oak Grove Drive, Jet Propulsion Laboratory
    Pasadena, CA  91109   USA

    General site: https://ssd.jpl.nasa.gov/
    Mailing list: https://ssd.jpl.nasa.gov/email_list.html
    System news : https://ssd.jpl.nasa.gov/horizons/news.html
    User Guide  : https://ssd.jpl.nasa.gov/horizons/manual.html
    Connect     : browser        https://ssd.jpl.nasa.gov/horizons/app.html#/x
                  API            https://ssd-api.jpl.nasa.gov/doc/horizons.html
                  command-line   telnet ssd.jpl.nasa.gov 6775
                  e-mail/batch   https://ssd.jpl.nasa.gov/ftp/ssd/hrzn_batch.txt
                  scripts        https://ssd.jpl.nasa.gov/ftp/ssd/SCRIPTS
    Author      : Jon.D.Giorgini@jpl.nasa.gov
*******************************************************************************
